2022031617 - METAR SBFZ 161700Z 34003KT 320V030 9999 SCT020 BKN100 26/23 Q1010=2022031618 - METAR SBFZ 161800Z 02004KT 340V060 9999 SCT020 BKN100 25/23 Q1010=2022031617 - METAR SBSG 161700Z 12009KT 9999 VCSH BKN021 28/24 Q1010=2022031618 - METAR SBSG 161800Z 15009KT 9999 FEW015 BKN020 FEW023TCU 28/25 Q1010=2022031617 - METAR SBNT 161700Z 09009KT 9999 BKN017 28/25 Q1010=2022031618 - METAR SBNT 161800Z 09007KT 050V110 9999 FEW012 SCT014 FEW015TCU 29/26 Q1009=2022031617 - METAR SBJP 161700Z 03010KT 9999 BKN018 26/24 Q1010=2022031617 - METAR SBKG 161700Z 06012KT 9999 SCT025 FEW025TCU 29/22 Q1012=2022031617 - METAR SBRF 161700Z 08008KT 9999 SCT020 FEW023TCU 30/24 Q1010=2022031618 - METAR SBRF 161800Z 11010KT 9999 SCT015 SCT019 FEW022TCU 29/25 Q1010=2022031617 - METAR SBMO 161700Z 08007KT 9999 VCSH SCT010 BKN020 FEW026TCU BKN070 25/23 Q1012 RETS=2022031617 - METAR SBAR 161700Z 10012KT 070V130 9999 VCSH SCT020 FEW025TCU SCT070 31/24 Q1010=2022031617 - METAR SBPL 161700Z 03007KT 9999 SCT030 31/23 Q1011=2022031617 - METAR SBJU 161700Z 19003KT 9999 BKN017 30/23 Q1013=2022031617 - METAR SBSV 161700Z 12009KT 090V160 9999 SCT020 FEW023TCU SCT100 31/25 Q1012=2022031618 - METAR SBSV 161800Z 11011KT 9999 SCT020 FEW023TCU SCT100 30/25 Q1011=2022031617 - METAR SBIL 161700Z 13005KT 9999 VCSH FEW020 FEW025TCU 29/25 Q1012=2022031617 - METAR SBPS 161700Z 09009KT 050V120 9999 SCT025 FEW030TCU 29/24 Q1013=2022031618 - METAR SBPS 161800Z 10008KT 060V120 9999 SCT025 FEW030TCU 29/24 Q1012=2022031617 - METAR SBVC 161700Z 13009KT 9999 SCT025 27/18 Q1016=2022031618 - METAR SBVC 161800Z 13012KT 9999 BKN030 27/19 Q1016=2022031617 - METAR SBVT 161700Z 07014KT 9999 SCT030 FEW040TCU 31/22 Q1014=2022031617 - METAR SBTE 161700Z 26004KT 9999 BKN020 BKN070 30/23 Q1010=2022031617 - METAR SBFN 161700Z AUTO 07005KT 020V120 9999 SCT017 29/25 Q1010=2022031617 - METAR SBPB 161700Z 35008KT 9999 SCT018 BKN090 29/25 Q////=2022031617 - METAR SBGV 161700Z 02003KT 9999 FEW045 SCT080 31/20 Q1013=2022031617 - METAR SBMS 161700Z 04014KT 9999 VCSH BKN020 FEW030TCU 31/24 Q1009=2022031617 - SPECI SBMS 161715Z 15010KT 6000 +TSRA BKN015 FEW030CB 25/23 Q1010=2022031617 - SPECI SBMS 161730Z 20006KT 7000 -TSRA BKN015 FEW030CB 24/23 Q1009 RERA=2022031617 - METAR SBUF 161700Z 29005KT 9999 SCT020TCU SCT070 29/23 Q1011 RETSRA=2022031617 - METAR SBAC 161700Z 02007KT 9999 BKN025 SCT070 29/25 Q1010=2022031617 - METAR SBJE 161700Z 25005KT 9999 BKN015 27/25 Q1010=2022031618 - METAR SBJE 161800Z 30004KT 9999 BKN015 BKN100 28/24 Q1010=2022031617 - METAR SNBR 161700Z AUTO VRB03KT 9999 FEW023 27/21 Q1015=2022031617 - METAR SNTF 161700Z AUTO 31004KT 260V350 9999 SCT041 28/23 Q1013=


