2022031617 - METAR SAEZ 161700Z 01009KT CAVOK 28/15 Q1012 NOSIG RMK PP000=2022031617 - METAR COR SAEZ 161700Z 01009KT CAVOK 28/15 Q1012 NOSIG=2022031617 - METAR SUMU 161700Z 04004KT 9999 SCT033 28/14 Q1014 NOSIG=2022031618 - METAR SUMU 161800Z 02009KT 9999 FEW040 29/13 Q1013 NOSIG=2022031617 - METAR SGAS 161700Z 21006KT CAVOK 31/17 Q1012=2022031617 - METAR SARE 161700Z  VRB04KT CAVOK 31/14 Q1011 RMK PP///=2022031617 - METAR COR SARE 161700Z VRB04KT CAVOK 31/14 Q1011=2022031617 - METAR SBUG 161700Z VRB02KT 9999 SCT040 30/19 Q1012=2022031617 - METAR SBBG 161700Z 05009KT 9999 BKN026 31/20 Q1015=2022031617 - SPECI SBPK 161715Z 08015KT 9999 SCT040 30/22 Q1014=2022031617 - METAR SBSM 161700Z 08006KT 9999 SCT030 30/20 Q1012=2022031617 - METAR SBNM 161700Z AUTO 01007KT 320V050 9999 FEW049 29/20 Q1013=2022031617 - METAR SBPA 161700Z 10009KT 9999 SCT025 BKN080 27/22 Q1015=2022031617 - METAR SBCO 161700Z 10008KT 9999 FEW040 SCT080 27/20 Q1015=2022031617 - METAR SBCX 161700Z 06004KT 9999 FEW030 BKN080 21/15 Q1018=2022031617 - METAR SBJA 161700Z 08008KT 9999 SCT020 OVC080 23/21 Q1017=2022031617 - METAR SBCH 161700Z 10012KT 9999 SCT040 26/20 Q1015=2022031617 - METAR SBFL 161700Z 18006KT 4500 RA FEW010 BKN025 BKN100 23/21 Q1015=2022031617 - METAR SBNF 161700Z 19010KT 6000 RA FEW025 SCT032 BKN042 21/19 Q1014=2022031617 - SPECI SBNF 161710Z 20009KT 9999 -RA FEW020 SCT031 FEW035TCU BKN042 21/19 Q1014 RERA=2022031617 - METAR SBJV 161700Z 20008KT 9999 BKN025 BKN040 24/19 Q1014=2022031617 - METAR SBCT 161700Z 14008KT 9999 BKN013 OVC050 21/19 Q1018=2022031617 - METAR SBBI 161700Z 15009KT 9999 BKN013 OVC020 20/17 Q1018=2022031617 - METAR SBFI 161700Z 31008KT 9999 VCSH SCT035 FEW040TCU 31/20 Q1011=2022031617 - METAR SSGG 161700Z 09009KT 9999 BKN012 21/16 Q1018=2022031617 - METAR SBPO 161700Z 09006KT 9999 BKN025 26/18 Q1016=2022031617 - METAR SBCA 161700Z 02008KT 9999 BKN030 27/19 Q1015=2022031617 - METAR SBTD 161700Z 03006KT 9999 SCT030 29/19 Q1013=2022031617 - METAR SBPP 161700Z 24002KT 9999 FEW015 29/16 Q1013=2022031617 - METAR SBDB 161700Z 03004KT 9999 FEW030 31/16 Q1011=2022031617 - SPECI SBDB 161705Z AUTO VRB03KT CAVOK 31/15 Q1011=2022031617 - METAR SBCG 161700Z 33006KT 290V020 CAVOK 30/17 Q1012=2022031617 - METAR SBCR 161700Z 36004KT 300V110 CAVOK 32/17 Q1010=2022031617 - SPECI SBTG 161730Z 32003KT 9999 SCT030 32/22 Q1010=2022031617 - METAR SBMG 161700Z 01005KT 9999 BKN030 FEW040TCU 29/22 Q1011=2022031617 - METAR SBLO 161700Z 11004KT 9999 BKN040 BKN050 29/23 Q1013=2022031617 - METAR SBDN 161700Z 06005KT 9999 BKN030 29/22 Q1012=2022031617 - METAR SBSP 161700Z 07009KT 040V100 9000 TS VCSH FEW040CB BKN043 25/20 Q1016=2022031617 - SPECI SBSP 161720Z 06008KT 040V100 4000 -RA BR FEW040TCU OVC050 23/20 Q1015 RETS=2022031617 - SPECI SBSP 161733Z 07005KT 040V100 6000 -RA FEW040TCU BKN043 23/20 Q1015 RETS=2022031617 - METAR SBMT 161700Z 13004KT 8000 -RA BKN045 23/21 Q1015=2022031617 - METAR SBGR 161700Z 27004KT 9999 -RA VCTS SCT040 FEW050CB BKN090 25/22 Q1015=2022031617 - METAR SBST 161700Z 19006KT 9999 BKN020 27/25 Q1010=2022031617 - SPECI SBST 161730Z 11004KT 9000 4000N TSRA BKN020 FEW035CB 27/24 Q1011=2022031617 - METAR SBTA 161700Z 02005KT 280V090 9999 SCT035 31/18 Q1013=2022031617 - METAR SBGW 161700Z VRB04KT 9999 FEW025 33/22 Q1013=2022031617 - METAR SBSC 161700Z 34004KT 9999 FEW040 FEW050TCU 36/21 Q1010=2022031617 - METAR SBJR 161700Z 16005KT 9999 FEW025 32/25 Q1011=2022031617 - METAR SBAF 161700Z 21009KT 9999 FEW025 SCT050 33/22 Q1011=2022031618 - METAR SBAF 161800Z 22008KT 190V260 9999 FEW025 SCT050 34/22 Q1010=2022031617 - METAR SBRJ 161700Z 16014KT 9999 FEW025 29/25 Q1010=2022031617 - METAR SBGL 161700Z 13009KT 090V160 9999 FEW025 34/23 Q1010=2022031617 - METAR SBBQ 161700Z 04008KT 9999 SCT046 27/16 Q1020=2022031618 - METAR SBBQ 161800Z 04007KT 9999 SCT046 23/16 Q1019=2022031617 - METAR SBES 161700Z 07016KT 9999 FEW025 33/20 Q1011=2022031617 - METAR SBCB 161700Z 07018KT CAVOK 31/21 Q1012=2022031617 - METAR SBME 161700Z 11010KT 9999 FEW020 32/22 Q1011=2022031617 - METAR SBMM 161700Z AUTO 03018KT 9999 NCD 28/22 Q1014 W///S4=2022031617 - METAR SBLB 161700Z AUTO 02016KT 9999 NCD 28/23 Q1014 W///S4=2022031617 - METAR SBCP 161700Z 07016KT 9999 FEW020 32/21 Q1012=2022031617 - METAR SBFS 161700Z 08013KT CAVOK 32/25 Q1012=2022031617 - METAR SBEN 161700Z AUTO 03019KT 9999 NCD 28/23 Q1014 W/////=2022031617 - METAR SDAG 161700Z AUTO 16007KT 120V220 CAVOK 31/26 Q1010=2022031617 - METAR SBMI 161700Z 21010KT 9999 FEW025 31/24 Q1011=2022031617 - METAR SDCO 161700Z 33007KT 290V010 9999 VCSH SCT036 FEW050TCU BKN100 29/20 Q1014=2022031617 - METAR SBJH 161700Z 33005KT 9999 FEW040 29/21 Q1014=


