2022031617 - METAR SBAN 161700Z VRB05KT 3000 -RA SCT003 BKN006 FEW030TCU 20/20 Q1018=2022031617 - METAR SBBH 161700Z 08008KT 9999 SCT045 29/17 Q1016=2022031617 - METAR SBBR 161700Z 01001KT 9999 BKN025 FEW040TCU BKN090 24/19 Q1016=2022031617 - METAR SBBW 161700Z 06004KT 9999 FEW015 SCT100 29/23 Q1012=2022031617 - METAR SBCF 161700Z 06010KT 9999 BKN045 30/17 Q1016=2022031618 - METAR SBCF 161800Z 04008KT 9999 SCT045 30/16 Q1015=2022031617 - METAR SBGO 161700Z 02009KT 340V060 9999 2000NE -RA FEW008 SCT025 FEW030TCU 23/21 Q1015=2022031617 - METAR SBIP 161700Z AUTO VRB04KT 9999 FEW048 31/16 Q1014=2022031617 - METAR SBLS 161700Z 09005KT 9999 BKN046 29/18 Q1017=2022031617 - METAR SBNV 161700Z VRB15KT 9999 -TSRA SCT008 BKN020 FEW035CB 21/21 Q1015=2022031617 - METAR SBPJ 161700Z 30004KT 9999 FEW027 FEW030TCU 30/23 Q1011=2022031617 - METAR SBPR 161700Z 10013KT 9999 BKN030 31/17 Q1017=2022031617 - METAR SBYS 161700Z 32007KT 270V020 9999 VCSH BKN040 FEW050TCU 31/21 Q1013=2022031617 - METAR SBAX 161700Z 36006KT 9999 BKN030 29/19 Q1016=2022031618 - METAR SBAX 161800Z 36007KT 9999 SCT035 29/18 Q1015=2022031617 - METAR SBBP 161700Z 30015KT 9999 BKN026 FEW036TCU 24/18 Q1016=2022031617 - METAR SBGP 161700Z 34007KT 9999 VCSH FEW015TCU BKN020 30/21 Q1013=2022031617 - METAR SBJD 161700Z 32008KT 260V360 9999 VCSH VCTS BKN033 FEW040CB 31/19 Q1014=2022031617 - METAR SBKP 161700Z 34015KT 9999 VCSH SCT040 FEW045TCU 30/20 Q1014=2022031617 - METAR SBSJ 161700Z 05005KT 9999 SCT040 FEW045TCU 30/17 Q1014=2022031617 - METAR SBRP 161700Z 34010KT 310V020 9999 BKN040 FEW045TCU 33/18 Q1012=2022031617 - METAR SBSR 161700Z 03009KT 9999 VCSH BKN025 FEW030TCU 31/19 Q1012=2022031617 - METAR SBUL 161700Z 35011KT 9999 VCSH SCT028 SCT036 FEW040TCU 26/19 Q1016=2022031617 - METAR SBUR 161700Z 01010KT 9999 VCSH FEW040 FEW045TCU SCT090 30/18 Q1015=2022031617 - METAR SBVG 161700Z 05008KT CAVOK 30/18 Q1016=2022031617 - METAR SNDV 161700Z AUTO 04007KT 020V080 CAVOK 29/18 Q1015=2022031617 - METAR SDAM 161700Z 34008KT 9999 BKN040 FEW045TCU 32/20 Q1013=2022031617 - METAR SWLC 161700Z AUTO 02008KT 350V060 9999 BKN037 28/20 Q1013=2022031617 - METAR SBML 161700Z 02008KT 9999 BKN030 30/23 Q1014=2022031617 - METAR SBBU 161700Z 03005KT 9999 FEW035 SCT040 FEW045TCU 31/23 Q1013=2022031617 - METAR SBAE 161700Z AUTO 36005KT 260V040 9999 FEW031 SCT038 29/21 Q1013=2022031617 - METAR SBAU 161700Z 27006KT 9999 SCT030 ///// Q1011=


