2022031617 - METAR SBEG 161700Z 25005KT 9999 SCT010 FEW030TCU BKN080 26/24 Q1011 RERA=2022031617 - METAR SBMN 161700Z 33006KT 8000 -TSRA VCSH BKN020 FEW025CB BKN070 26/24 Q1010 RESHRA=2022031618 - METAR SBMN 161800Z 29008KT 9999 VCSH FEW008 BKN020 FEW025TCU BKN070 27/24 Q1010 RETS=2022031617 - METAR SBBV 161700Z 08007KT 9999 -SHRA BKN035 FEW040TCU 31/22 Q1011=2022031618 - METAR SBBV 161800Z 15014KT 9999 -SHRA FEW010 BKN035 FEW040TCU OVC100 28/23 Q1010=2022031617 - METAR SBPV 161700Z 36008KT 9999 FEW015 BKN030 26/24 Q1010=2022031617 - METAR COR SBPV 161700Z 36008KT 9999 RA FEW015 BKN030 26/24 Q1010=2022031617 - SPECI SBPV 161729Z 26003KT 9999 FEW015 BKN050 27/24 Q1009 RERA=2022031618 - METAR SBPV 161800Z 27002KT 9999 FEW030 SCT050 28/25 Q1008=2022031617 - METAR SBRB 161700Z 07002KT 9999 BKN030 28/24 Q1012=2022031617 - METAR SBCY 161700Z 16003KT 9999 FEW020 BKN100 31/21 Q1010=2022031618 - METAR SBCY 161800Z 15003KT 9999 FEW020 BKN100 31/22 Q1009=2022031617 - METAR SBSL 161700Z 25004KT 9999 SCT020 BKN100 28/26 Q1010=2022031617 - METAR SBBE 161700Z 32006KT 9999 BKN032 FEW035TCU 29/24 Q1010=2022031617 - METAR SBSN 161700Z 09009KT 9999 FEW018 29/24 Q1011=2022031617 - METAR SBMQ 161700Z 08007KT 9999 SCT020 32/23 Q1010=2022031617 - METAR SBCZ 161700Z 15008KT 9999 BKN015 OVC090 25/24 Q1014=2022031617 - METAR SBTF 161700Z 32006KT 9999 SCT020 BKN100 30/25 Q1010=2022031617 - METAR SBAT 161700Z 11003KT 9999 SCT030 30/24 Q1011=2022031617 - METAR SBUA 161700Z 13003KT 080V160 9999 FEW013 BKN080 27/24 Q1012=2022031617 - METAR SBCC 161700Z 00000KT 9999 SCT025 BKN030 FEW030TCU BKN080 24/22 Q1012 RESHRA RERA=2022031617 - SPECI SBSO 161710Z 03007KT 9999 VCSH BKN030 BKN070 31/22 Q1009=2022031617 - METAR SBIH 161700Z 06005KT 9999 FEW020 33/25 Q1009=2022031617 - METAR SBTT 161700Z 14002KT 9999 -RA SCT007 BKN015 BKN070 22/22 Q1014=2022031618 - METAR SBTT 161800Z 31002KT 5000 -RA BR SCT007 SCT015 OVC070 22/21 Q1013=2022031617 - METAR SBJI 161700Z 03005KT 9999 BKN020 31/23 Q1010=2022031617 - METAR SBHT 161700Z 07004KT 9999 BKN030 30/23 Q1011=2022031617 - METAR SBMA 161700Z 33003KT 9999 BKN020 BKN090 27/25 Q1011=2022031617 - METAR SBVH 161700Z 08006KT 040V100 9999 BKN030 29/21 Q1013=2022031618 - METAR SBVH 161800Z 08006KT 9999 BKN030 30/22 Q1011=2022031617 - METAR SBOI 161700Z 04006KT 8000 -RA BKN015 26/25 Q1011 RERA=2022031617 - METAR SBCJ 161700Z 02002KT 9999 SCT013 25/21 Q1015=2022031617 - METAR SBIZ 161700Z 33003KT 9999 SCT035 29/26 Q1010=2022031617 - METAR SBTS 161700Z 33006KT 280V030 8000 VCSH FEW030TCU BKN031 OVC056 28/23 Q1012 REDZ=2022031617 - METAR SBUY 161700Z 12002KT 9999 BKN020 BKN100 28/24 Q1010=2022031618 - METAR SBUY 161800Z 33002KT 9999 SCT025 SCT100 29/24 Q1008=2022031617 - METAR SBGM 161700Z 19005KT 120V240 9999 BKN019 29/24 Q1011=2022031617 - METAR SSKW 161700Z 26003KT 9999 SCT030 31/25 Q1011=2022031617 - METAR SBSI 161700Z 06009KT 9999 SCT040 SCT070 28/23 Q1011=


